{
  "norad_id": 58836,
  "name": "STARLINK-31251",
  "history": [
    {
      "epoch": "2026-03-28T19:25:29.856576Z",
      "apogee_km": 476.0302159332732,
      "perigee_km": 474.42460971863693,
      "latitude_deg": 1.136635118203756e-05,
      "longitude_deg": -2.099184589304292,
      "height_km": 475.98565135088757,
      "semi_major_axis_km": 6853.364412825955,
      "eccentricity": 0.00011714,
      "inclination_deg": 53.1601,
      "raan_deg": 115.4997,
      "arg_perigee_deg": 79.9565,
      "mean_anomaly_deg": 280.1568,
      "mean_motion_rev_day": 15.30195866
    },
    {
      "epoch": "2026-03-29T01:41:42.734400Z",
      "apogee_km": 476.07856332729625,
      "perigee_km": 474.3940041741507,
      "latitude_deg": 4.824173054117545e-05,
      "longitude_deg": -97.62372451843224,
      "height_km": 476.02829234335144,
      "semi_major_axis_km": 6853.373283750723,
      "eccentricity": 0.0001229,
      "inclination_deg": 53.1601,
      "raan_deg": 114.2863,
      "arg_perigee_deg": 82.7607,
      "mean_anomaly_deg": 277.3534,
      "mean_motion_rev_day": 15.30192895
    },
    {
      "epoch": "2026-03-30T01:12:30.946752Z",
      "apogee_km": 476.13667669315964,
      "perigee_km": 474.35205618533837,
      "latitude_deg": 5.917157432226379e-06,
      "longitude_deg": -95.84140103093108,
      "height_km": 476.1489257446389,
      "semi_major_axis_km": 6853.381366439248,
      "eccentricity": 0.0001302,
      "inclination_deg": 53.1611,
      "raan_deg": 109.7352,
      "arg_perigee_deg": 90.4119,
      "mean_anomaly_deg": 269.7031,
      "mean_motion_rev_day": 15.30190188
    },
    {
      "epoch": "2026-03-30T05:54:40.523904Z",
      "apogee_km": 476.12516823126043,
      "perigee_km": 474.36014883400276,
      "latitude_deg": -1.3253077477197341e-05,
      "longitude_deg": -167.48365128342485,
      "height_km": 476.10667485655847,
      "semi_major_axis_km": 6853.379658532632,
      "eccentricity": 0.00012877,
      "inclination_deg": 53.1606,
      "raan_deg": 108.826,
      "arg_perigee_deg": 87.7856,
      "mean_anomaly_deg": 272.3292,
      "mean_motion_rev_day": 15.3019076
    },
    {
      "epoch": "2026-03-30T07:28:43.794336Z",
      "apogee_km": 476.11710962287907,
      "perigee_km": 474.37511670317417,
      "latitude_deg": -2.25123656238363e-05,
      "longitude_deg": 168.63473707061976,
      "height_km": 476.1186338512617,
      "semi_major_axis_km": 6853.383113163026,
      "eccentricity": 0.00012709,
      "inclination_deg": 53.1599,
      "raan_deg": 108.5224,
      "arg_perigee_deg": 88.3195,
      "mean_anomaly_deg": 271.7951,
      "mean_motion_rev_day": 15.30189603
    },
    {
      "epoch": "2026-03-30T18:27:05.990112Z",
      "apogee_km": 476.12511297238325,
      "perigee_km": 474.35324109557314,
      "latitude_deg": -6.668578952618586e-05,
      "longitude_deg": 1.467784083949495,
      "height_km": 476.1235706790023,
      "semi_major_axis_km": 6853.376177033978,
      "eccentricity": 0.00012927,
      "inclination_deg": 53.16,
      "raan_deg": 106.3986,
      "arg_perigee_deg": 89.1167,
      "mean_anomaly_deg": 270.9981,
      "mean_motion_rev_day": 15.30191926
    },
    {
      "epoch": "2026-03-31T17:57:54.375264Z",
      "apogee_km": 476.09434399986367,
      "perigee_km": 474.4166335186155,
      "latitude_deg": 1.2312921926811948e-05,
      "longitude_deg": 3.2495767787178527,
      "height_km": 476.118964155611,
      "semi_major_axis_km": 6853.392488759239,
      "eccentricity": 0.0001224,
      "inclination_deg": 53.1601,
      "raan_deg": 101.8476,
      "arg_perigee_deg": 87.6314,
      "mean_anomaly_deg": 272.4827,
      "mean_motion_rev_day": 15.30186463
    },
    {
      "epoch": "2026-04-01T08:04:22.797408Z",
      "apogee_km": 476.04083387098217,
      "perigee_km": 474.4481080171354,
      "latitude_deg": 9.927161130721255e-06,
      "longitude_deg": 148.32095950733682,
      "height_km": 476.14768412318256,
      "semi_major_axis_km": 6853.3814709440585,
      "eccentricity": 0.0001162,
      "inclination_deg": 53.1605,
      "raan_deg": 99.1168,
      "arg_perigee_deg": 90.3556,
      "mean_anomaly_deg": 269.7578,
      "mean_motion_rev_day": 15.30190153
    },
    {
      "epoch": "2026-04-02T16:59:29.573952Z",
      "apogee_km": 476.0162911610132,
      "perigee_km": 474.44632154939427,
      "latitude_deg": 2.0408465816657276e-06,
      "longitude_deg": 6.818302573599919,
      "height_km": 476.1251992323077,
      "semi_major_axis_km": 6853.3683063552035,
      "eccentricity": 0.00011454,
      "inclination_deg": 53.1605,
      "raan_deg": 92.7443,
      "arg_perigee_deg": 89.6786,
      "mean_anomaly_deg": 270.4346,
      "mean_motion_rev_day": 15.30194562
    },
    {
      "epoch": "2026-04-03T16:30:18.999360Z",
      "apogee_km": 475.953596790283,
      "perigee_km": 474.59113900794455,
      "latitude_deg": 2.6949743874535116e-05,
      "longitude_deg": 8.598707536293453,
      "height_km": 476.2973474666608,
      "semi_major_axis_km": 6853.409367899113,
      "eccentricity": 9.94e-05,
      "inclination_deg": 53.1599,
      "raan_deg": 88.1963,
      "arg_perigee_deg": 100.7044,
      "mean_anomaly_deg": 259.4069,
      "mean_motion_rev_day": 15.3018081
    },
    {
      "epoch": "2026-04-04T09:44:54.610368Z",
      "apogee_km": 476.11558205859455,
      "perigee_km": 474.3994920665127,
      "latitude_deg": 3.720582382379747e-05,
      "longitude_deg": 105.90188146777753,
      "height_km": 476.0270190377231,
      "semi_major_axis_km": 6853.394537062553,
      "eccentricity": 0.0001252,
      "inclination_deg": 53.161,
      "raan_deg": 84.856,
      "arg_perigee_deg": 81.3711,
      "mean_anomaly_deg": 278.7432,
      "mean_motion_rev_day": 15.30185777
    },
    {
      "epoch": "2026-04-05T06:07:34.527936Z",
      "apogee_km": 475.9801317840074,
      "perigee_km": 474.4682803019541,
      "latitude_deg": 8.356519655914837e-07,
      "longitude_deg": 155.45884549440058,
      "height_km": 476.29075903124397,
      "semi_major_axis_km": 6853.3612060429805,
      "eccentricity": 0.0001103,
      "inclination_deg": 53.1601,
      "raan_deg": 80.9162,
      "arg_perigee_deg": 102.857,
      "mean_anomaly_deg": 257.2554,
      "mean_motion_rev_day": 15.3019694
    },
    {
      "epoch": "2026-04-05T15:31:53.493024Z",
      "apogee_km": 476.0342600272361,
      "perigee_km": 474.3908268067253,
      "latitude_deg": -5.0622250926316805e-05,
      "longitude_deg": 12.172024620022846,
      "height_km": 476.1816832218036,
      "semi_major_axis_km": 6853.34954341698,
      "eccentricity": 0.0001199,
      "inclination_deg": 53.1605,
      "raan_deg": 79.0947,
      "arg_perigee_deg": 94.9499,
      "mean_anomaly_deg": 265.1638,
      "mean_motion_rev_day": 15.30200846
    },
    {
      "epoch": "2026-04-06T05:38:23.353728Z",
      "apogee_km": 476.0139226711917,
      "perigee_km": 474.493155310588,
      "latitude_deg": 1.736694594580394e-05,
      "longitude_deg": 157.23734738629227,
      "height_km": 476.126699621613,
      "semi_major_axis_km": 6853.39053899089,
      "eccentricity": 0.00011095,
      "inclination_deg": 53.1605,
      "raan_deg": 76.3638,
      "arg_perigee_deg": 88.1023,
      "mean_anomaly_deg": 272.0105,
      "mean_motion_rev_day": 15.30187116
    },
    {
      "epoch": "2026-04-07T05:09:10.433376Z",
      "apogee_km": 475.99209255824826,
      "perigee_km": 474.39567766187065,
      "latitude_deg": -1.2257564778075666e-05,
      "longitude_deg": 159.02510980008938,
      "height_km": 476.11514942652303,
      "semi_major_axis_km": 6853.330885110059,
      "eccentricity": 0.00011647,
      "inclination_deg": 53.161,
      "raan_deg": 71.8134,
      "arg_perigee_deg": 91.6464,
      "mean_anomaly_deg": 268.467,
      "mean_motion_rev_day": 15.30207095
    },
    {
      "epoch": "2026-04-08T07:48:04.668192Z",
      "apogee_km": 476.082388831589,
      "perigee_km": 474.3842607325141,
      "latitude_deg": 1.419751103896618e-05,
      "longitude_deg": 113.04633696263062,
      "height_km": 476.0389486273291,
      "semi_major_axis_km": 6853.370324782051,
      "eccentricity": 0.00012389,
      "inclination_deg": 53.1607,
      "raan_deg": 66.655,
      "arg_perigee_deg": 83.7404,
      "mean_anomaly_deg": 276.3738,
      "mean_motion_rev_day": 15.30193886
    },
    {
      "epoch": "2026-04-09T21:25:19.670592Z",
      "apogee_km": 476.07365713283616,
      "perigee_km": 474.3342791951163,
      "latitude_deg": 1.7285857339516103e-05,
      "longitude_deg": -100.09590816924117,
      "height_km": 476.39433492794774,
      "semi_major_axis_km": 6853.340968163976,
      "eccentricity": 0.0001269,
      "inclination_deg": 53.1612,
      "raan_deg": 59.3703,
      "arg_perigee_deg": 109.623,
      "mean_anomaly_deg": 250.4908,
      "mean_motion_rev_day": 15.30203718
    },
    {
      "epoch": "2026-04-10T06:49:40.434528Z",
      "apogee_km": 476.041344809164,
      "perigee_km": 474.49014563181026,
      "latitude_deg": -1.436618077593777e-05,
      "longitude_deg": 116.61686970185895,
      "height_km": 476.2092784883286,
      "semi_major_axis_km": 6853.402745220486,
      "eccentricity": 0.00011317,
      "inclination_deg": 53.1594,
      "raan_deg": 57.5559,
      "arg_perigee_deg": 93.3511,
      "mean_anomaly_deg": 266.7619,
      "mean_motion_rev_day": 15.30183028
    },
    {
      "epoch": "2026-04-11T20:26:57.234912Z",
      "apogee_km": 476.2161513694273,
      "perigee_km": 474.19030399812436,
      "latitude_deg": 1.4471217685484199e-05,
      "longitude_deg": -96.5318667093699,
      "height_km": 476.1606526601526,
      "semi_major_axis_km": 6853.340227683776,
      "eccentricity": 0.0001478,
      "inclination_deg": 53.1607,
      "raan_deg": 50.2722,
      "arg_perigee_deg": 93.371,
      "mean_anomaly_deg": 266.746,
      "mean_motion_rev_day": 15.30203966
    },
    {
      "epoch": "2026-04-13T05:22:04.557504Z",
      "apogee_km": 476.2248753490321,
      "perigee_km": 474.2761831389671,
      "latitude_deg": -2.380744371158068e-05,
      "longitude_deg": 121.96467036372788,
      "height_km": 476.2135271275242,
      "semi_major_axis_km": 6853.387529244,
      "eccentricity": 0.00014217,
      "inclination_deg": 53.1609,
      "raan_deg": 43.9012,
      "arg_perigee_deg": 93.8271,
      "mean_anomaly_deg": 266.2892,
      "mean_motion_rev_day": 15.30188124
    },
    {
      "epoch": "2026-04-14T12:43:09.180768Z",
      "apogee_km": 476.2342102144321,
      "perigee_km": 474.32868574915483,
      "latitude_deg": 5.649308923458293e-05,
      "longitude_deg": 4.339416352306114,
      "height_km": 476.41171421241074,
      "semi_major_axis_km": 6853.418447981793,
      "eccentricity": 0.00013902,
      "inclination_deg": 53.1617,
      "raan_deg": 37.8327,
      "arg_perigee_deg": 104.1019,
      "mean_anomaly_deg": 256.0137,
      "mean_motion_rev_day": 15.30177769
    }
  ]
}